[{"OBJECT_NAME":"ONEWEB-0238","OBJECT_ID":"2021-045T","EPOCH":"2025-11-04T06:14:41.388864","MEAN_MOTION":13.15547264,"ECCENTRICITY":0.00019851,"INCLINATION":87.8951,"RA_OF_ASC_NODE":304.057,"ARG_OF_PERICENTER":81.1737,"MEAN_ANOMALY":278.9618,"EPHEMERIS_TYPE":0,"CLASSIFICATION_TYPE":"U","NORAD_CAT_ID":48784,"ELEMENT_SET_NO":999,"REV_AT_EPOCH":21480,"BSTAR":-0.00018454762,"MEAN_MOTION_DOT":-5.7e-7,"MEAN_MOTION_DDOT":0},{"OBJECT_NAME":"ONEWEB-0240","OBJECT_ID":"2021-045U","EPOCH":"2025-11-04T06:45:18.144000","MEAN_MOTION":13.15550125,"ECCENTRICITY":0.00022574,"INCLINATION":87.8972,"RA_OF_ASC_NODE":304.0416,"ARG_OF_PERICENTER":91.1381,"MEAN_ANOMALY":269.0008,"EPHEMERIS_TYPE":0,"CLASSIFICATION_TYPE":"U","NORAD_CAT_ID":48785,"ELEMENT_SET_NO":999,"REV_AT_EPOCH":21483,"BSTAR":0.00062315944,"MEAN_MOTION_DOT":2.47e-6,"MEAN_MOTION_DDOT":0},{"OBJECT_NAME":"ONEWEB-0246","OBJECT_ID":"2021-045V","EPOCH":"2025-11-04T06:37:18.768288","MEAN_MOTION":13.15549273,"ECCENTRICITY":0.00018469,"INCLINATION":87.8965,"RA_OF_ASC_NODE":304.0559,"ARG_OF_PERICENTER":96.1758,"MEAN_ANOMALY":263.9583,"EPHEMERIS_TYPE":0,"CLASSIFICATION_TYPE":"U","NORAD_CAT_ID":48786,"ELEMENT_SET_NO":999,"REV_AT_EPOCH":21470,"BSTAR":0.00021567894,"MEAN_MOTION_DOT":9.4e-7,"MEAN_MOTION_DDOT":0},{"OBJECT_NAME":"ONEWEB-0210","OBJECT_ID":"2021-045W","EPOCH":"2025-11-04T06:00:47.973600","MEAN_MOTION":13.1554987,"ECCENTRICITY":0.00021014,"INCLINATION":87.8966,"RA_OF_ASC_NODE":304.0604,"ARG_OF_PERICENTER":109.607,"MEAN_ANOMALY":250.5287,"EPHEMERIS_TYPE":0,"CLASSIFICATION_TYPE":"U","NORAD_CAT_ID":48787,"ELEMENT_SET_NO":999,"REV_AT_EPOCH":21474,"BSTAR":0.00034139024,"MEAN_MOTION_DOT":1.41e-6,"MEAN_MOTION_DDOT":0},{"OBJECT_NAME":"ONEWEB-0214","OBJECT_ID":"2021-045X","EPOCH":"2025-11-04T06:13:21.383328","MEAN_MOTION":13.15549676,"ECCENTRICITY":0.00017981,"INCLINATION":87.8973,"RA_OF_ASC_NODE":304.0458,"ARG_OF_PERICENTER":104.5478,"MEAN_ANOMALY":255.5851,"EPHEMERIS_TYPE":0,"CLASSIFICATION_TYPE":"U","NORAD_CAT_ID":48788,"ELEMENT_SET_NO":999,"REV_AT_EPOCH":21471,"BSTAR":4.810312e-6,"MEAN_MOTION_DOT":1.5e-7,"MEAN_MOTION_DDOT":0},{"OBJECT_NAME":"ONEWEB-0221","OBJECT_ID":"2021-045Y","EPOCH":"2025-11-04T06:23:36.804480","MEAN_MOTION":13.15549979,"ECCENTRICITY":0.00020027,"INCLINATION":87.8953,"RA_OF_ASC_NODE":304.0652,"ARG_OF_PERICENTER":95.0923,"MEAN_ANOMALY":265.0436,"EPHEMERIS_TYPE":0,"CLASSIFICATION_TYPE":"U","NORAD_CAT_ID":48789,"ELEMENT_SET_NO":999,"REV_AT_EPOCH":21480,"BSTAR":-0.00012924911,"MEAN_MOTION_DOT":-3.6e-7,"MEAN_MOTION_DDOT":0},{"OBJECT_NAME":"ONEWEB-0213","OBJECT_ID":"2021-045Z","EPOCH":"2025-11-04T06:07:39.171072","MEAN_MOTION":13.15548644,"ECCENTRICITY":0.00019985,"INCLINATION":87.8958,"RA_OF_ASC_NODE":304.0768,"ARG_OF_PERICENTER":97.4316,"MEAN_ANOMALY":262.7042,"EPHEMERIS_TYPE":0,"CLASSIFICATION_TYPE":"U","NORAD_CAT_ID":48790,"ELEMENT_SET_NO":999,"REV_AT_EPOCH":21486,"BSTAR":-0.00022633683,"MEAN_MOTION_DOT":-7.2e-7,"MEAN_MOTION_DDOT":0},{"OBJECT_NAME":"ONEWEB-0212","OBJECT_ID":"2021-045AA","EPOCH":"2025-11-04T05:34:33.823488","MEAN_MOTION":13.1554819,"ECCENTRICITY":0.00018985,"INCLINATION":87.8966,"RA_OF_ASC_NODE":304.0678,"ARG_OF_PERICENTER":88.7132,"MEAN_ANOMALY":271.4215,"EPHEMERIS_TYPE":0,"CLASSIFICATION_TYPE":"U","NORAD_CAT_ID":48791,"ELEMENT_SET_NO":999,"REV_AT_EPOCH":21485,"BSTAR":-0.00012012439,"MEAN_MOTION_DOT":-3.2e-7,"MEAN_MOTION_DDOT":0},{"OBJECT_NAME":"ONEWEB-0227","OBJECT_ID":"2021-045AB","EPOCH":"2025-11-04T05:33:24.495264","MEAN_MOTION":13.15549883,"ECCENTRICITY":0.00019621,"INCLINATION":87.8952,"RA_OF_ASC_NODE":304.0824,"ARG_OF_PERICENTER":92.4765,"MEAN_ANOMALY":267.659,"EPHEMERIS_TYPE":0,"CLASSIFICATION_TYPE":"U","NORAD_CAT_ID":48792,"ELEMENT_SET_NO":999,"REV_AT_EPOCH":21480,"BSTAR":-1.4453562e-5,"MEAN_MOTION_DOT":7.0e-8,"MEAN_MOTION_DDOT":0},{"OBJECT_NAME":"ONEWEB-0226","OBJECT_ID":"2021-045AC","EPOCH":"2025-11-04T05:24:17.891712","MEAN_MOTION":13.15549336,"ECCENTRICITY":0.00019227,"INCLINATION":87.8952,"RA_OF_ASC_NODE":304.0919,"ARG_OF_PERICENTER":100.7159,"MEAN_ANOMALY":259.4188,"EPHEMERIS_TYPE":0,"CLASSIFICATION_TYPE":"U","NORAD_CAT_ID":48793,"ELEMENT_SET_NO":999,"REV_AT_EPOCH":21477,"BSTAR":0.00021149506,"MEAN_MOTION_DOT":9.2e-7,"MEAN_MOTION_DDOT":0},{"OBJECT_NAME":"ONEWEB-0224","OBJECT_ID":"2021-045AD","EPOCH":"2025-11-04T06:21:18.421920","MEAN_MOTION":13.15549567,"ECCENTRICITY":0.00028218,"INCLINATION":87.8954,"RA_OF_ASC_NODE":304.1187,"ARG_OF_PERICENTER":84.0968,"MEAN_ANOMALY":276.0483,"EPHEMERIS_TYPE":0,"CLASSIFICATION_TYPE":"U","NORAD_CAT_ID":48794,"ELEMENT_SET_NO":999,"REV_AT_EPOCH":21470,"BSTAR":-0.00023586769,"MEAN_MOTION_DOT":-7.6e-7,"MEAN_MOTION_DDOT":0},{"OBJECT_NAME":"ONEWEB-0233","OBJECT_ID":"2021-045AE","EPOCH":"2025-11-04T06:27:58.682880","MEAN_MOTION":13.15549474,"ECCENTRICITY":0.00021579,"INCLINATION":87.8951,"RA_OF_ASC_NODE":304.1289,"ARG_OF_PERICENTER":94.6433,"MEAN_ANOMALY":265.4943,"EPHEMERIS_TYPE":0,"CLASSIFICATION_TYPE":"U","NORAD_CAT_ID":48795,"ELEMENT_SET_NO":999,"REV_AT_EPOCH":21472,"BSTAR":-0.00016041775,"MEAN_MOTION_DOT":-4.8e-7,"MEAN_MOTION_DDOT":0},{"OBJECT_NAME":"ONEWEB-0190","OBJECT_ID":"2021-045AF","EPOCH":"2025-11-04T00:41:21.240384","MEAN_MOTION":13.15549303,"ECCENTRICITY":0.0002462,"INCLINATION":87.8955,"RA_OF_ASC_NODE":304.1391,"ARG_OF_PERICENTER":105.9083,"MEAN_ANOMALY":254.2319,"EPHEMERIS_TYPE":0,"CLASSIFICATION_TYPE":"U","NORAD_CAT_ID":48796,"ELEMENT_SET_NO":999,"REV_AT_EPOCH":21476,"BSTAR":-0.00030833092,"MEAN_MOTION_DOT":-1.03e-6,"MEAN_MOTION_DDOT":0},{"OBJECT_NAME":"ONEWEB-0236","OBJECT_ID":"2021-045AG","EPOCH":"2025-11-04T01:06:27.567360","MEAN_MOTION":13.15548838,"ECCENTRICITY":0.00018838,"INCLINATION":87.8955,"RA_OF_ASC_NODE":304.1469,"ARG_OF_PERICENTER":86.1674,"MEAN_ANOMALY":273.9672,"EPHEMERIS_TYPE":0,"CLASSIFICATION_TYPE":"U","NORAD_CAT_ID":48797,"ELEMENT_SET_NO":999,"REV_AT_EPOCH":21465,"BSTAR":0.00013312364,"MEAN_MOTION_DOT":6.3e-7,"MEAN_MOTION_DDOT":0},{"OBJECT_NAME":"ONEWEB-0248","OBJECT_ID":"2021-045AH","EPOCH":"2025-11-04T06:53:16.742112","MEAN_MOTION":13.15547546,"ECCENTRICITY":0.00024556,"INCLINATION":87.8965,"RA_OF_ASC_NODE":304.0584,"ARG_OF_PERICENTER":93.6634,"MEAN_ANOMALY":266.4778,"EPHEMERIS_TYPE":0,"CLASSIFICATION_TYPE":"U","NORAD_CAT_ID":48798,"ELEMENT_SET_NO":999,"REV_AT_EPOCH":21484,"BSTAR":0.00020332175,"MEAN_MOTION_DOT":8.9e-7,"MEAN_MOTION_DDOT":0},{"OBJECT_NAME":"ONEWEB-0225","OBJECT_ID":"2021-045AJ","EPOCH":"2025-11-04T05:35:42.527904","MEAN_MOTION":13.15548957,"ECCENTRICITY":0.00023152,"INCLINATION":87.8956,"RA_OF_ASC_NODE":304.0965,"ARG_OF_PERICENTER":102.5546,"MEAN_ANOMALY":257.5844,"EPHEMERIS_TYPE":0,"CLASSIFICATION_TYPE":"U","NORAD_CAT_ID":48799,"ELEMENT_SET_NO":999,"REV_AT_EPOCH":21484,"BSTAR":-6.9541414e-5,"MEAN_MOTION_DOT":-1.3e-7,"MEAN_MOTION_DDOT":0}]
