ONEWEB-0238             
1 48784U 21045T   25308.26020126 -.00000057  00000+0 -18455-3 0  9999
2 48784  87.8951 304.0570 0001985  81.1737 278.9618 13.15547264214804
ONEWEB-0240             
1 48785U 21045U   25308.28146000  .00000247  00000+0  62316-3 0  9996
2 48785  87.8972 304.0416 0002257  91.1381 269.0008 13.15550125214833
ONEWEB-0246             
1 48786U 21045V   25308.27591167  .00000094  00000+0  21568-3 0  9998
2 48786  87.8965 304.0559 0001846  96.1758 263.9583 13.15549273214709
ONEWEB-0210             
1 48787U 21045W   25308.25055525  .00000141  00000+0  34139-3 0  9991
2 48787  87.8966 304.0604 0002101 109.6070 250.5287 13.15549870214744
ONEWEB-0214             
1 48788U 21045X   25308.25927527  .00000015  00000+0  48103-5 0  9990
2 48788  87.8973 304.0458 0001798 104.5478 255.5851 13.15549676214710
ONEWEB-0221             
1 48789U 21045Y   25308.26639820 -.00000036  00000+0 -12925-3 0  9994
2 48789  87.8953 304.0652 0002002  95.0923 265.0436 13.15549979214804
ONEWEB-0213             
1 48790U 21045Z   25308.25531448 -.00000072  00000+0 -22634-3 0  9990
2 48790  87.8958 304.0768 0001998  97.4316 262.7042 13.15548644214865
ONEWEB-0212             
1 48791U 21045AA  25308.23233592 -.00000032  00000+0 -12012-3 0  9993
2 48791  87.8966 304.0678 0001898  88.7132 271.4215 13.15548190214857
ONEWEB-0227             
1 48792U 21045AB  25308.23153351  .00000007  00000+0 -14454-4 0  9992
2 48792  87.8952 304.0824 0001962  92.4765 267.6590 13.15549883214800
ONEWEB-0226             
1 48793U 21045AC  25308.22520708  .00000092  00000+0  21150-3 0  9999
2 48793  87.8952 304.0919 0001922 100.7159 259.4188 13.15549336214773
ONEWEB-0224             
1 48794U 21045AD  25308.26479655 -.00000076  00000+0 -23587-3 0  9998
2 48794  87.8954 304.1187 0002821  84.0968 276.0483 13.15549567214707
ONEWEB-0233             
1 48795U 21045AE  25308.26942920 -.00000048  00000+0 -16042-3 0  9996
2 48795  87.8951 304.1289 0002157  94.6433 265.4943 13.15549474214726
ONEWEB-0190             
1 48796U 21045AF  25308.02871806 -.00000103  00000+0 -30833-3 0  9991
2 48796  87.8955 304.1391 0002462 105.9083 254.2319 13.15549303214769
ONEWEB-0236             
1 48797U 21045AG  25308.04615240  .00000063  00000+0  13312-3 0  9998
2 48797  87.8955 304.1469 0001883  86.1674 273.9672 13.15548838214658
ONEWEB-0248             
1 48798U 21045AH  25308.28699933  .00000089  00000+0  20332-3 0  9994
2 48798  87.8965 304.0584 0002455  93.6634 266.4778 13.15547546214842
ONEWEB-0225             
1 48799U 21045AJ  25308.23313111 -.00000013  00000+0 -69541-4 0  9996
2 48799  87.8956 304.0965 0002315 102.5546 257.5844 13.15548957214845
